NORAD_CAT_ID,OBJECT_NAME,OBJECT_TYPE,EPOCH,MEAN_MOTION,ECCENTRICITY,INCLINATION,RA_OF_ASC_NODE,ARG_OF_PERICENTER,MEAN_ANOMALY,BSTAR,MEAN_MOTION_DOT,MEAN_MOTION_DDOT,TLE_LINE0,TLE_LINE1,TLE_LINE2,SEMIMAJOR_AXIS,PERIOD,APOGEE,PERIGEE,DECAYED
53794.0,STARLINK-4730,PAYLOAD,2022-10-11 22:00:00,15.73145752,0.0001469,53.215,114.384,110.2901,291.7694,0.00083333,0.0011771,0.0,0 STARLINK-4730,1 53794U 22111X   22284.91667824  .00117710  00000-0  83333-3 0  9996,2 53794  53.2150 114.3840 0001469 110.2901 291.7694 15.73145752  4788,6728.05,91.536,350.903,348.926,0.0
53794.0,STARLINK-4730,PAYLOAD,2022-10-12 14:00:01,15.73224306,0.0001372,53.2162,111.0845,123.3248,96.6044,-0.00011713,-0.00017042,0.0,0 STARLINK-4730,1 53794U 22111X   22285.58334491 -.00017042  00000-0 -11713-3 0  9993,2 53794  53.2162 111.0845 0001372 123.3248  96.6044 15.73224306  4898,6727.826,91.532,350.61400000000015,348.76800000000014,0.0
53794.0,STARLINK-4730,PAYLOAD,2022-10-12 22:00:00,15.73216977,0.0001229,53.2172,109.4389,111.5187,197.3581,-0.00014541,-0.00020991,0.0,0 STARLINK-4730,1 53794U 22111X   22285.91667824 -.00020991  00000-0 -14541-3 0  9998,2 53794  53.2172 109.4389 0001229 111.5187 197.3581 15.73216977  1308,6727.847,91.532,350.539,348.885,0.0
53794.0,STARLINK-4730,PAYLOAD,2022-10-13 14:00:01,15.73204688,0.0001657,53.2174,106.1382,113.7753,12.9769,-4.4875e-06,-1.25e-05,0.0,0 STARLINK-4730,1 53794U 22111X   22286.58334491 -.00001250  00000-0 -44875-5 0  9995,2 53794  53.2174 106.1382 0001657 113.7753  12.9769 15.73204688  1301,6727.882,91.533,350.862,348.63199999999995,0.0
53794.0,STARLINK-4730,PAYLOAD,2022-10-13 20:00:01,15.73342305,0.0001375,53.2173,104.9023,105.8736,357.5717,-0.0014993,-0.002072,0.0,0 STARLINK-4730,1 53794U 22111X   22286.83335648 -.00207200  00000-0 -14993-2 0  9996,2 53794  53.2173 104.9023 0001375 105.8736 357.5717 15.73342305  5098,6727.489000000001,91.525,350.28,348.42900000000014,0.0
53794.0,STARLINK-4730,PAYLOAD,2022-10-13 22:00:00,15.73232807,0.0001396999999999,53.2174,104.4905,102.9349,112.7374,-0.00032931,-0.00046646,0.0,0 STARLINK-4730,1 53794U 22111X   22286.91667824 -.00046646  00000-0 -32931-3 0  9997,2 53794  53.2174 104.4905 0001397 102.9349 112.7374 15.73232807  1300,6727.802,91.531,350.607,348.727,0.0
53794.0,STARLINK-4730,PAYLOAD,2022-10-14 08:00:01,15.7323675,0.0001209,53.2163,102.4255,112.5272,304.3588,-0.00015732,-0.00022674,0.0,0 STARLINK-4730,1 53794U 22111X   22287.33335648 -.00022674  00000-0 -15732-3 0  9995,2 53794  53.2163 102.4255 0001209 112.5272 304.3588 15.73236750  5163,6727.79,91.531,350.469,348.842,0.0
53794.0,STARLINK-4730,PAYLOAD,2022-10-14 14:00:01,15.73217166,0.0001530999999999,53.217,101.1894,112.3693,281.1801,-0.00015323,-0.00022085,0.0,0 STARLINK-4730,1 53794U 22111X   22287.58334491 -.00022085  00000-0 -15323-3 0  9999,2 53794  53.2170 101.1894 0001531 112.3693 281.1801 15.73217166  1301,6727.846,91.532,350.741,348.681,0.0
53794.0,STARLINK-4730,PAYLOAD,2022-10-14 20:00:01,15.7320574,0.0001545,53.2174,99.9545,107.1668,263.0873,-1.9541e-05,-3.362e-05,0.0,0 STARLINK-4730,1 53794U 22111X   22287.83334491 -.00003362  00000-0 -19541-4 0  9991,2 53794  53.2174  99.9545 0001545 107.1668 263.0873 15.73205740  1304,6727.879,91.533,350.783,348.704,0.0
53794.0,STARLINK-4730,PAYLOAD,2022-10-15 14:00:01,15.7326959,0.0001286,53.2158,96.2374,99.7652,200.8079,-0.0008865,-0.0012359,0.0,0 STARLINK-4730,1 53794U 22111X   22288.58334491 -.00123590  00000-0 -88650-3 0  9996,2 53794  53.2158  96.2374 0001286  99.7652 200.8079 15.73269590  1307,6727.696999999999,91.529,350.427,348.69699999999995,0.0
53794.0,STARLINK-4730,PAYLOAD,2022-10-15 22:00:01,15.73187423,0.0001341999999999,53.2152,94.5893,87.0896,302.5491,-0.00079816,-0.0011110999999999,0.0,0 STARLINK-4730,1 53794U 22111X   22288.91668981 -.00111110  00000-0 -79816-3 0  9996,2 53794  53.2152  94.5893 0001342  87.0896 302.5491 15.73187423  5419,6727.931,91.534,350.699,348.89300000000014,0.0
53794.0,STARLINK-4730,PAYLOAD,2022-10-16 14:00:01,15.73146614,0.0001473,53.2155,91.2894,93.8786,113.3587,0.00045811,0.00064017,0.0,0 STARLINK-4730,1 53794U 22111X   22289.58334491  .00064017  00000-0  45811-3 0  9995,2 53794  53.2155  91.2894 0001473  93.8786 113.3587 15.73146614  5528,6728.047,91.536,350.903,348.921,0.0
53794.0,STARLINK-4730,PAYLOAD,2022-10-16 22:00:00,15.73182487,0.0001357,53.216,89.6431,79.8957,216.231,0.00075067,0.0010599,0.0,0 STARLINK-4730,1 53794U 22111X   22289.91667824  .00105990  00000-0  75067-3 0  9993,2 53794  53.2160  89.6431 0001357  79.8957 216.2310 15.73182487  1304,6727.945,91.534,350.723,348.897,0.0
53794.0,STARLINK-4730,PAYLOAD,2022-10-17 06:00:00,15.73181348,0.0001219,53.2163,87.9904,91.6628,293.3585,0.00025763,0.00035661,0.0,0 STARLINK-4730,1 53794U 22111X   22290.25001157  .00035661  00000-0  25763-3 0  9998,2 53794  53.2163  87.9904 0001219  91.6628 293.3585 15.73181348  5621,6727.948,91.534,350.6330000000001,348.99300000000005,0.0
53794.0,STARLINK-4730,PAYLOAD,2022-10-17 14:00:01,15.73234073,0.0001288,53.2162,86.3416,84.7078,29.283,-8.2128e-05,-0.00012146,0.0,0 STARLINK-4730,1 53794U 22111X   22290.58334491 -.00012146  00000-0 -82128-4 0  9998,2 53794  53.2162  86.3416 0001288  84.7078  29.2830 15.73234073  5688,6727.7980000000025,91.531,350.53,348.796,0.0
53794.0,STARLINK-4730,PAYLOAD,2022-10-17 22:00:00,15.73203677,0.0001267,53.215,84.6929,73.3645,129.5477,-4.2794e-05,-6.622e-05,0.0,0 STARLINK-4730,1 53794U 22111X   22290.91667824 -.00006622  00000-0 -42794-4 0  9991,2 53794  53.2150  84.6929 0001267  73.3645 129.5477 15.73203677  5739,6727.885,91.533,350.602,348.897,0.0
53794.0,STARLINK-4730,PAYLOAD,2022-10-18 14:00:01,15.73188517,0.0001279,53.2153,81.3927,79.8589,300.8996,0.00026782,0.00037114,0.0,0 STARLINK-4730,1 53794U 22111X   22291.58334491  .00037114  00000-0  26782-3 0  9992,2 53794  53.2153  81.3927 0001279  79.8589 300.8996 15.73188517  1309,6727.928000000001,91.534,350.653,348.932,0.0
53794.0,STARLINK-4730,PAYLOAD,2022-10-18 22:00:00,15.73203355,0.000159,53.2172,79.7473,85.1749,24.5248,1.7808e-05,1.88e-05,0.0,0 STARLINK-4730,1 53794U 22111X   22291.91667824  .00001880  00000-0  17808-4 0  9999,2 53794  53.2172  79.7473 0001590  85.1749  24.5248 15.73203355  1309,6727.886,91.533,350.82,348.681,0.0
53794.0,STARLINK-4730,PAYLOAD,2022-10-19 06:00:00,15.73174388,0.0001175,53.2155,78.0926,73.6269,125.0118,0.00012941,0.0001756,0.0,0 STARLINK-4730,1 53794U 22111X   22292.25001157  .00017560  00000-0  12941-3 0  9992,2 53794  53.2155  78.0926 0001175  73.6269 125.0118 15.73174388  5943,6727.968000000003,91.535,350.624,349.043,0.0
53794.0,STARLINK-4730,PAYLOAD,2022-10-19 14:00:01,15.73207729,0.0001343,53.2155,76.4441,69.5645,217.983,0.00021403,0.00029533,0.0,0 STARLINK-4730,1 53794U 22111X   22292.58334491  .00029533  00000-0  21403-3 0  9994,2 53794  53.2155  76.4441 0001343  69.5645 217.9830 15.73207729  1300,6727.873000000001,91.533,350.642,348.835,0.0
53794.0,STARLINK-4730,PAYLOAD,2022-10-19 22:00:00,15.73269806,0.0001259,53.2162,74.7976,63.2835,313.2187,-0.0009968,-0.00138645,0.0,0 STARLINK-4730,1 53794U 22111X   22292.91667824 -.00138645  00000-0 -99680-3 0  9999,2 53794  53.2162  74.7976 0001259  63.2835 313.2187 15.73269806  1309,6727.696,91.529,350.408,348.714,0.0
53794.0,STARLINK-4730,PAYLOAD,2022-10-20 06:00:00,15.73221982,0.0001139,53.2149,73.1438,67.8544,37.6037,2.6723e-05,3.135e-05,0.0,0 STARLINK-4730,1 53794U 22111X   22293.25001157  .00003135  00000-0  26723-4 0  9990,2 53794  53.2149  73.1438 0001139  67.8544  37.6037 15.73221982  6101,6727.833000000001,91.532,350.464,348.931,0.0
53794.0,STARLINK-4730,PAYLOAD,2022-10-20 14:00:01,15.73246446,0.0001279,53.2152,71.4954,62.6425,131.762,-0.00046966,-0.00066148,0.0,0 STARLINK-4730,1 53794U 22111X   22293.58334491 -.00066148  00000-0 -46966-3 0  9991,2 53794  53.2152  71.4954 0001279  62.6425 131.7620 15.73246446  1308,6727.763000000001,91.53,350.48800000000006,348.767,0.0
53794.0,STARLINK-4730,PAYLOAD,2022-10-20 22:00:00,15.73240591,0.0001271,53.2157,69.8482,50.0964,233.2524,-0.00042295,-0.00059661,0.0,0 STARLINK-4730,1 53794U 22111X   22293.91667824 -.00059661  00000-0 -42295-3 0  9990,2 53794  53.2157  69.8482 0001271  50.0964 233.2524 15.73240591  1307,6727.779,91.531,350.5,348.789,0.0
53794.0,STARLINK-4730,PAYLOAD,2022-10-21 06:00:00,15.7313725,0.0001279,53.2159,68.1951,63.3879,308.8836,0.00070906,0.00099812,0.0,0 STARLINK-4730,1 53794U 22111X   22294.25001157  .00099812  00000-0  70906-3 0  9999,2 53794  53.2159  68.1951 0001279  63.3879 308.8836 15.73137250  6253,6728.074000000001,91.537,350.8,349.079,0.0
53794.0,STARLINK-4730,PAYLOAD,2022-10-21 14:00:01,15.73223814,0.0001373,53.2163,66.5476,53.8145,47.3847,-0.00035036,-0.00049552,0.0,0 STARLINK-4730,1 53794U 22111X   22294.58334491 -.00049552  00000-0 -35036-3 0  9998,2 53794  53.2163  66.5476 0001373  53.8145  47.3847 15.73223814  1307,6727.8269999999975,91.532,350.616,348.769,0.0
53794.0,STARLINK-4730,PAYLOAD,2022-10-21 22:00:00,15.73235109,0.0001489,53.215,64.8974,48.3027,141.8205,-0.00037547,-0.00053064,0.0,0 STARLINK-4730,1 53794U 22111X   22294.91667824 -.00053064  00000-0 -37547-3 0  9996,2 53794  53.2150  64.8974 0001489  48.3027 141.8205 15.73235109  6362,6727.795,91.531,350.662,348.658,0.0
53794.0,STARLINK-4730,PAYLOAD,2022-10-22 14:00:01,15.732088699999998,0.0001462,53.2156,61.5979,50.9897,317.0134,-0.00013321,-0.0001928,0.0,0 STARLINK-4730,1 53794U 22111X   22295.58334491 -.00019280  00000-0 -13321-3 0  9997,2 53794  53.2156  61.5979 0001462  50.9897 317.0134 15.73208870  1304,6727.87,91.533,350.718,348.751,0.0
53794.0,STARLINK-4730,PAYLOAD,2022-10-22 22:00:00,15.7326356,0.0001609,53.2156,59.9485,43.6762,53.26300000000001,-0.00037914,-0.00053638,0.0,0 STARLINK-4730,1 53794U 22111X   22295.91667824 -.00053638  00000-0 -37914-3 0  9992,2 53794  53.2156  59.9485 0001609  43.6762  53.2630 15.73263560  1307,6727.714,91.529,350.661,348.496,0.0
